[{"OBJECT_NAME":"OOV-CUBE (TUBSAT-30)","OBJECT_ID":"2024-128F","EPOCH":"2026-03-02T18:33:50.125248","MEAN_MOTION":15.02184323,"ECCENTRICITY":0.0055105,"INCLINATION":61.9933,"RA_OF_ASC_NODE":236.4815,"ARG_OF_PERICENTER":111.0594,"MEAN_ANOMALY":249.6402,"EPHEMERIS_TYPE":0,"CLASSIFICATION_TYPE":"U","NORAD_CAT_ID":60240,"ELEMENT_SET_NO":999,"REV_AT_EPOCH":9012,"BSTAR":0.00032804,"MEAN_MOTION_DOT":4.271e-5,"MEAN_MOTION_DDOT":0}]
